{
  "type": "FeatureCollection",
  "features": [
    {
      "type": "Feature",
      "properties": {
        "norad_id": 26766,
        "name": "INTELSAT 10 (IS-10)",
        "group": "intelsat",
        "lat": -4.9825261690463,
        "lon": -84.15083666574955,
        "alt_km": 36093.86051024385,
        "timestamp": "2025-12-22T05:49:03.149977+00:00",
        "meta_object_name": "INTELSAT 10 (IS-10)",
        "meta_object_id": "2001-019A",
        "meta_epoch": "2025-12-21T17:53:39.051168",
        "meta_mean_motion": 0.99073842,
        "meta_eccentricity": 0.0007736,
        "meta_inclination": 8.6495,
        "meta_ra_of_asc_node": 61.0661,
        "meta_arg_of_pericenter": 228.4282,
        "meta_mean_anomaly": 169.4863,
        "meta_ephemeris_type": 0,
        "meta_classification_type": "U",
        "meta_norad_cat_id": 26766,
        "meta_element_set_no": 999,
        "meta_rev_at_epoch": 4382,
        "meta_bstar": 0,
        "meta_mean_motion_dot": -7.1e-07,
        "meta_mean_motion_ddot": 0,
        "tle_line1": "1 26766U 01019A   25355.74559087 -.00000071  00000+0  00000+0 0  9990",
        "tle_line2": "2 26766   8.6495  61.0661 0007736 228.4282 169.4863  0.99073842 43828"
      },
      "geometry": {
        "type": "Point",
        "coordinates": [
          -84.15083666574955,
          -4.9825261690463
        ]
      }
    },
    {
      "type": "Feature",
      "properties": {
        "norad_id": 26900,
        "name": "INTELSAT 902 (IS-902)",
        "group": "intelsat",
        "lat": 4.6172377255854125,
        "lon": 127.98290338785885,
        "alt_km": 35800.12390737399,
        "timestamp": "2025-12-22T05:49:03.150002+00:00",
        "meta_object_name": "INTELSAT 902 (IS-902)",
        "meta_object_id": "2001-039A",
        "meta_epoch": "2025-12-15T13:09:02.081664",
        "meta_mean_motion": 1.0027087,
        "meta_eccentricity": 0.00045028,
        "meta_inclination": 5.6536,
        "meta_ra_of_asc_node": 74.0372,
        "meta_arg_of_pericenter": 189.6359,
        "meta_mean_anomaly": 327.9329,
        "meta_ephemeris_type": 0,
        "meta_classification_type": "U",
        "meta_norad_cat_id": 26900,
        "meta_element_set_no": 999,
        "meta_rev_at_epoch": 8885,
        "meta_bstar": 0,
        "meta_mean_motion_dot": -2.65e-06,
        "meta_mean_motion_ddot": 0,
        "tle_line1": "1 26900U 01039A   25349.54794076 -.00000265  00000+0  00000+0 0  9997",
        "tle_line2": "2 26900   5.6536  74.0372 0004502 189.6359 327.9329  1.00270870 88858"
      },
      "geometry": {
        "type": "Point",
        "coordinates": [
          127.98290338785885,
          4.6172377255854125
        ]
      }
    },
    {
      "type": "Feature",
      "properties": {
        "norad_id": 27380,
        "name": "INTELSAT 904 (IS-904)",
        "group": "intelsat",
        "lat": 6.288409777585564,
        "lon": 146.7099956834506,
        "alt_km": 35793.51419607265,
        "timestamp": "2025-12-22T05:49:03.150019+00:00",
        "meta_object_name": "INTELSAT 904 (IS-904)",
        "meta_object_id": "2002-007A",
        "meta_epoch": "2025-12-21T11:20:13.445376",
        "meta_mean_motion": 1.00270601,
        "meta_eccentricity": 0.00018754,
        "meta_inclination": 6.475,
        "meta_ra_of_asc_node": 71.332,
        "meta_arg_of_pericenter": 249.2884,
        "meta_mean_anomaly": 268.2201,
        "meta_ephemeris_type": 0,
        "meta_classification_type": "U",
        "meta_norad_cat_id": 27380,
        "meta_element_set_no": 999,
        "meta_rev_at_epoch": 4998,
        "meta_bstar": 0,
        "meta_mean_motion_dot": -2.08e-06,
        "meta_mean_motion_ddot": 0,
        "tle_line1": "1 27380U 02007A   25355.47237784 -.00000208  00000+0  00000+0 0  9990",
        "tle_line2": "2 27380   6.4750  71.3320 0001875 249.2884 268.2201  1.00270601 49986"
      },
      "geometry": {
        "type": "Point",
        "coordinates": [
          146.7099956834506,
          6.288409777585564
        ]
      }
    },
    {
      "type": "Feature",
      "properties": {
        "norad_id": 27426,
        "name": "DIRECTV 5 (TEMPO 1)",
        "group": "intelsat",
        "lat": -0.6966259682273612,
        "lon": 68.2342899667593,
        "alt_km": 35797.921373340665,
        "timestamp": "2025-12-22T05:49:03.150033+00:00",
        "meta_object_name": "DIRECTV 5 (TEMPO 1)",
        "meta_object_id": "2002-023A",
        "meta_epoch": "2025-12-21T16:05:53.587968",
        "meta_mean_motion": 1.00271761,
        "meta_eccentricity": 0.0003158,
        "meta_inclination": 4.4235,
        "meta_ra_of_asc_node": 77.5485,
        "meta_arg_of_pericenter": 199.36,
        "meta_mean_anomaly": 304.9323,
        "meta_ephemeris_type": 0,
        "meta_classification_type": "U",
        "meta_norad_cat_id": 27426,
        "meta_element_set_no": 999,
        "meta_rev_at_epoch": 8634,
        "meta_bstar": 0,
        "meta_mean_motion_dot": -3.8e-07,
        "meta_mean_motion_ddot": 0,
        "tle_line1": "1 27426U 02023A   25355.67075912 -.00000038  00000+0  00000+0 0  9995",
        "tle_line2": "2 27426   4.4235  77.5485 0003158 199.3600 304.9323  1.00271761 86342"
      },
      "geometry": {
        "type": "Point",
        "coordinates": [
          68.2342899667593,
          -0.6966259682273612
        ]
      }
    },
    {
      "type": "Feature",
      "properties": {
        "norad_id": 27438,
        "name": "INTELSAT 905 (IS-905)",
        "group": "intelsat",
        "lat": -3.2173140728025453,
        "lon": 41.285732432402476,
        "alt_km": 35792.78166498638,
        "timestamp": "2025-12-22T05:49:03.150047+00:00",
        "meta_object_name": "INTELSAT 905 (IS-905)",
        "meta_object_id": "2002-027A",
        "meta_epoch": "2025-12-21T11:38:50.085024",
        "meta_mean_motion": 1.00272793,
        "meta_eccentricity": 0.00026882,
        "meta_inclination": 6.3061,
        "meta_ra_of_asc_node": 71.9555,
        "meta_arg_of_pericenter": 203.6165,
        "meta_mean_anomaly": 212.2349,
        "meta_ephemeris_type": 0,
        "meta_classification_type": "U",
        "meta_norad_cat_id": 27438,
        "meta_element_set_no": 999,
        "meta_rev_at_epoch": 4958,
        "meta_bstar": 0,
        "meta_mean_motion_dot": 1.12e-06,
        "meta_mean_motion_ddot": 0,
        "tle_line1": "1 27438U 02027A   25355.48530191  .00000112  00000+0  00000+0 0  9998",
        "tle_line2": "2 27438   6.3061  71.9555 0002688 203.6165 212.2349  1.00272793 49581"
      },
      "geometry": {
        "type": "Point",
        "coordinates": [
          41.285732432402476,
          -3.2173140728025453
        ]
      }
    },
    {
      "type": "Feature",
      "properties": {
        "norad_id": 27445,
        "name": "GALAXY 3C (G-3C)",
        "group": "intelsat",
        "lat": 0.19813494047157088,
        "lon": 83.43389306013678,
        "alt_km": 35784.89585690656,
        "timestamp": "2025-12-22T05:49:03.150060+00:00",
        "meta_object_name": "GALAXY 3C (G-3C)",
        "meta_object_id": "2002-030A",
        "meta_epoch": "2025-12-21T16:35:41.356896",
        "meta_mean_motion": 1.00271848,
        "meta_eccentricity": 0.0001097,
        "meta_inclination": 3.2847,
        "meta_ra_of_asc_node": 80.4122,
        "meta_arg_of_pericenter": 78.5508,
        "meta_mean_anomaly": 85.6093,
        "meta_ephemeris_type": 0,
        "meta_classification_type": "U",
        "meta_norad_cat_id": 27445,
        "meta_element_set_no": 999,
        "meta_rev_at_epoch": 4471,
        "meta_bstar": 0,
        "meta_mean_motion_dot": -1.32e-06,
        "meta_mean_motion_ddot": 0,
        "tle_line1": "1 27445U 02030A   25355.69145089 -.00000132  00000+0  00000+0 0  9994",
        "tle_line2": "2 27445   3.2847  80.4122 0001097  78.5508  85.6093  1.00271848 44713"
      },
      "geometry": {
        "type": "Point",
        "coordinates": [
          83.43389306013678,
          0.19813494047157088
        ]
      }
    },
    {
      "type": "Feature",
      "properties": {
        "norad_id": 27513,
        "name": "INTELSAT 906 (IS-906)",
        "group": "intelsat",
        "lat": 1.1581915646417063,
        "lon": -117.53516041502985,
        "alt_km": 35763.07009493792,
        "timestamp": "2025-12-22T05:49:03.150073+00:00",
        "meta_object_name": "INTELSAT 906 (IS-906)",
        "meta_object_id": "2002-041A",
        "meta_epoch": "2025-12-21T20:19:33.988224",
        "meta_mean_motion": 1.00273099,
        "meta_eccentricity": 0.0006306,
        "meta_inclination": 5.3527,
        "meta_ra_of_asc_node": 75.1232,
        "meta_arg_of_pericenter": 200.0655,
        "meta_mean_anomaly": 184.499,
        "meta_ephemeris_type": 0,
        "meta_classification_type": "U",
        "meta_norad_cat_id": 27513,
        "meta_element_set_no": 999,
        "meta_rev_at_epoch": 8525,
        "meta_bstar": 0,
        "meta_mean_motion_dot": 3.1e-07,
        "meta_mean_motion_ddot": 0,
        "tle_line1": "1 27513U 02041A   25355.84692116  .00000031  00000+0  00000+0 0  9994",
        "tle_line2": "2 27513   5.3527  75.1232 0006306 200.0655 184.4990  1.00273099 85251"
      },
      "geometry": {
        "type": "Point",
        "coordinates": [
          -117.53516041502985,
          1.1581915646417063
        ]
      }
    }
  ]
}